ONEWEB-0055             
1 45443U 20020V   20119.58334491 -.00046512  00000-0 -24063-2 0  9991
2 45443  87.4530 125.5768 0027932 149.9485   8.5296 15.16191036  5767
ONEWEB-0093             
1 45444U 20020W   20119.58334491 -.00044805  00000-0 -19566-2 0  9997
2 45444  87.4295 125.5466 0028342 149.9973 150.2410 15.22023764  5761
ONEWEB-0029             
1 45445U 20020X   20119.58334491 -.00044497  00000-0 -25097-2 0  9991
2 45445  87.4473 125.6025 0028807 150.7272 232.4918 15.13102751  5760
ONEWEB-0068             
1 45446U 20020Y   20119.58334491 -.00062245  00000-0 -36401-2 0  9994
2 45446  87.4497 125.6189 0029070 152.7615 179.3674 15.11875994  5755
ONEWEB-0046             
1 45447U 20020Z   20119.58334491  .00282274  00000-0  15966-1 0  9991
2 45447  87.4548 125.6224 0029057 153.1642 116.1964 15.11398981  5750
ONEWEB-0063             
1 45448U 20020AA  20119.58334491 -.00060034  00000-0 -33209-2 0  9993
2 45448  87.4461 125.6128 0028733 155.4404 225.0758 15.13862162  5760
ONEWEB-0019             
1 45449U 20020AB  20119.58334491 -.00059091  00000-0 -57666-2 0  9998
2 45449  87.4963 125.8854 0029025 157.4248  78.6805 14.92521428  5723
ONEWEB-0094             
1 45450U 20020AC  20119.58334491 -.00047559  00000-0 -29483-2 0  9992
2 45450  87.4459 125.6436 0028428 158.3299 353.8628 15.09720103  5755
ONEWEB-0087             
1 45451U 20020AD  20119.50001157 -.00008370  00000-0 -80614-3 0  9997
2 45451  87.4647 125.8369 0027586 160.2728 136.9818 14.92916676  5715
ONEWEB-0082             
1 45452U 20020AE  20119.58334491 -.00038723  00000-0 -24776-2 0  9997
2 45452  87.4314 125.6487 0028028 159.7986 258.3629 15.08539915  5755
ONEWEB-0050             
1 45453U 20020AF  20119.58334491 -.00044916  00000-0 -23172-2 0  9998
2 45453  87.4915 125.6408 0026728 158.9994 174.3094 15.16313379  5757
ONEWEB-0034             
1 45454U 20020AG  20119.58334491 -.00043980  00000-0 -28259-2 0  9990
2 45454  87.4334 125.6568 0026364 158.2272 213.1248 15.08445919  5758
ONEWEB-0060             
1 45455U 20020AH  20119.58334491 -.00040752  00000-0 -40685-2 0  9992
2 45455  87.4713 125.9895 0025372 159.4984 147.4502 14.91601208  5700
ONEWEB-0086             
1 45456U 20020AJ  20119.25001157 -.00018733  00000-0 -16882-2 0  9993
2 45456  87.4592 126.0461 0025132 159.4252 281.8136 14.95564539  5669
ONEWEB-0088             
1 45457U 20020AK  20119.25001157 -.00023729  00000-0 -24694-2 0  9995
2 45457  87.4496 126.0692 0024352 159.5761  37.1885 14.89883216  5659
